<?xml version="1.0" encoding="UTF-8"?>
<gpx xmlns="http://www.topografix.com/GPX/1/1" xmlns:gpxtpx="http://www.garmin.com/xmlschemas/TrackPointExtension/v1" xmlns:xsi="http://www.w3.org/2001/XMLSchema-instance" xsi:schemaLocation="http://www.topografix.com/GPX/1/1 http://www.topografix.com/GPX/1/1/gpx.xsd" version="1.1" creator="gpx.py -- https://github.com/tkrajina/gpxpy">
  <trk>
    <name>gpx from keep</name>
    <type>Run</type>
    <trkseg>
      <trkpt lat="31.393783995804846" lon="120.90391787425393">
        <time>2026-09-11T12:30:45.210000Z</time>
      </trkpt>
      <trkpt lat="31.39370811529478" lon="120.90356303339294">
        <time>2026-09-11T12:30:57.310000Z</time>
      </trkpt>
      <trkpt lat="31.39361422853903" lon="120.90323117807522">
        <time>2026-09-11T12:31:09.310000Z</time>
      </trkpt>
      <trkpt lat="31.393561282837403" lon="120.90307424516809">
        <time>2026-09-11T12:31:15.310000Z</time>
      </trkpt>
      <trkpt lat="31.393517314486953" lon="120.90299627946469">
        <time>2026-09-11T12:31:18.310000Z</time>
      </trkpt>
      <trkpt lat="31.39336737922219" lon="120.90290632676795">
        <time>2026-09-11T12:31:24.310000Z</time>
      </trkpt>
      <trkpt lat="31.393066482670324" lon="120.90283537874738">
        <time>2026-09-11T12:31:36.310000Z</time>
      </trkpt>
      <trkpt lat="31.39279657427918" lon="120.90277642336694">
        <time>2026-09-11T12:31:48.310000Z</time>
      </trkpt>
      <trkpt lat="31.392448680527743" lon="120.90275146135343">
        <time>2026-09-11T12:32:00.310000Z</time>
      </trkpt>
      <trkpt lat="31.39236570727751" lon="120.90273947269081">
        <time>2026-09-11T12:32:03.310000Z</time>
      </trkpt>
      <trkpt lat="31.392295736916108" lon="120.90269849387343">
        <time>2026-09-11T12:32:06.310000Z</time>
      </trkpt>
      <trkpt lat="31.392203799283468" lon="120.90253956048159">
        <time>2026-09-11T12:32:12.310000Z</time>
      </trkpt>
      <trkpt lat="31.39215185387957" lon="120.90235763072316">
        <time>2026-09-11T12:32:18.310000Z</time>
      </trkpt>
      <trkpt lat="31.392144876383377" lon="120.90226066575016">
        <time>2026-09-11T12:32:21.310000Z</time>
      </trkpt>
      <trkpt lat="31.392166889874833" lon="120.9021646975588">
        <time>2026-09-11T12:32:24.310000Z</time>
      </trkpt>
      <trkpt lat="31.392318893183763" lon="120.90192776600804">
        <time>2026-09-11T12:32:33.310000Z</time>
      </trkpt>
      <trkpt lat="31.39255886122519" lon="120.90173081134678">
        <time>2026-09-11T12:32:45.310000Z</time>
      </trkpt>
      <trkpt lat="31.392666854125753" lon="120.90159884491071">
        <time>2026-09-11T12:32:51.310000Z</time>
      </trkpt>
      <trkpt lat="31.392837860607674" lon="120.90127493112165">
        <time>2026-09-11T12:33:03.310000Z</time>
      </trkpt>
      <trkpt lat="31.392899852065273" lon="120.90121794310396">
        <time>2026-09-11T12:33:06.310000Z</time>
      </trkpt>
      <trkpt lat="31.39320677486852" lon="120.90114793867575">
        <time>2026-09-11T12:33:18.310000Z</time>
      </trkpt>
      <trkpt lat="31.39348769828298" lon="120.90112092358119">
        <time>2026-09-11T12:33:27.310000Z</time>
      </trkpt>
      <trkpt lat="31.393806615224076" lon="120.90106591347173">
        <time>2026-09-11T12:33:39.310000Z</time>
      </trkpt>
      <trkpt lat="31.394100534705338" lon="120.90104089661884">
        <time>2026-09-11T12:33:51.310000Z</time>
      </trkpt>
      <trkpt lat="31.394423449932553" lon="120.90098988480754">
        <time>2026-09-11T12:34:03.310000Z</time>
      </trkpt>
      <trkpt lat="31.394738365353025" lon="120.90095286954521">
        <time>2026-09-11T12:34:15.310000Z</time>
      </trkpt>
      <trkpt lat="31.39504729009617" lon="120.90086486901538">
        <time>2026-09-11T12:34:27.310000Z</time>
      </trkpt>
      <trkpt lat="31.395326216694325" lon="120.90082185812251">
        <time>2026-09-11T12:34:39.310000Z</time>
      </trkpt>
      <trkpt lat="31.395659131475544" lon="120.90075384956278">
        <time>2026-09-11T12:34:51.310000Z</time>
      </trkpt>
      <trkpt lat="31.39596205067683" lon="120.90071483536803">
        <time>2026-09-11T12:35:03.310000Z</time>
      </trkpt>
      <trkpt lat="31.396270970288956" lon="120.90066082463716">
        <time>2026-09-11T12:35:15.310000Z</time>
      </trkpt>
      <trkpt lat="31.3965858880489" lon="120.90060781299601">
        <time>2026-09-11T12:35:27.310000Z</time>
      </trkpt>
      <trkpt lat="31.396899807019146" lon="120.90054780312973">
        <time>2026-09-11T12:35:39.310000Z</time>
      </trkpt>
      <trkpt lat="31.39713774577423" lon="120.90050079592199">
        <time>2026-09-11T12:35:48.310000Z</time>
      </trkpt>
      <trkpt lat="31.397450658884377" lon="120.90048777365931">
        <time>2026-09-11T12:36:00.310000Z</time>
      </trkpt>
      <trkpt lat="31.397793565184948" lon="120.90046275203272">
        <time>2026-09-11T12:36:12.310000Z</time>
      </trkpt>
      <trkpt lat="31.39812848382679" lon="120.90035875116443">
        <time>2026-09-11T12:36:24.310000Z</time>
      </trkpt>
      <trkpt lat="31.398450413483452" lon="120.90018976676397">
        <time>2026-09-11T12:36:36.310000Z</time>
      </trkpt>
      <trkpt lat="31.398619369743578" lon="120.90015676094154">
        <time>2026-09-11T12:36:42.310000Z</time>
      </trkpt>
      <trkpt lat="31.398785322004777" lon="120.90016574515967">
        <time>2026-09-11T12:36:48.310000Z</time>
      </trkpt>
      <trkpt lat="31.399026242697214" lon="120.90026370137763">
        <time>2026-09-11T12:36:57.310000Z</time>
      </trkpt>
      <trkpt lat="31.39922216452913" lon="120.90044963831468">
        <time>2026-09-11T12:37:06.310000Z</time>
      </trkpt>
      <trkpt lat="31.399411067404248" lon="120.90077453634912">
        <time>2026-09-11T12:37:18.310000Z</time>
      </trkpt>
      <trkpt lat="31.399637959377518" lon="120.90107143387947">
        <time>2026-09-11T12:37:30.310000Z</time>
      </trkpt>
      <trkpt lat="31.39987985354109" lon="120.90130734410708">
        <time>2026-09-11T12:37:42.310000Z</time>
      </trkpt>
      <trkpt lat="31.400127752944552" lon="120.90149026753781">
        <time>2026-09-11T12:37:54.310000Z</time>
      </trkpt>
      <trkpt lat="31.400400651048894" lon="120.90163419967054">
        <time>2026-09-11T12:38:06.310000Z</time>
      </trkpt>
      <trkpt lat="31.400620575937346" lon="120.90170915751554">
        <time>2026-09-11T12:38:15.310000Z</time>
      </trkpt>
      <trkpt lat="31.400644552274624" lon="120.90180012587538">
        <time>2026-09-11T12:38:18.310000Z</time>
      </trkpt>
      <trkpt lat="31.400499569602538" lon="120.90192109762572">
        <time>2026-09-11T12:38:24.310000Z</time>
      </trkpt>
      <trkpt lat="31.400443569583416" lon="120.9020010752588">
        <time>2026-09-11T12:38:27.310000Z</time>
      </trkpt>
      <trkpt lat="31.400406561763763" lon="120.90209204721936">
        <time>2026-09-11T12:38:30.310000Z</time>
      </trkpt>
      <trkpt lat="31.400388527494187" lon="120.9022829820617">
        <time>2026-09-11T12:38:36.310000Z</time>
      </trkpt>
      <trkpt lat="31.400317510981534" lon="120.90245292695735">
        <time>2026-09-11T12:38:42.310000Z</time>
      </trkpt>
      <trkpt lat="31.400314430135538" lon="120.90281479240193">
        <time>2026-09-11T12:38:54.310000Z</time>
      </trkpt>
      <trkpt lat="31.400308347273757" lon="120.9031646559911">
        <time>2026-09-11T12:39:06.310000Z</time>
      </trkpt>
      <trkpt lat="31.400310260409693" lon="120.90350051831874">
        <time>2026-09-11T12:39:18.310000Z</time>
      </trkpt>
      <trkpt lat="31.400286175481533" lon="120.90383737637814">
        <time>2026-09-11T12:39:30.310000Z</time>
      </trkpt>
      <trkpt lat="31.40028507432711" lon="120.9041902192829">
        <time>2026-09-11T12:39:42.310000Z</time>
      </trkpt>
      <trkpt lat="31.400313958899396" lon="120.904544052664">
        <time>2026-09-11T12:39:54.310000Z</time>
      </trkpt>
      <trkpt lat="31.40032292946383" lon="120.90463001102431">
        <time>2026-09-11T12:39:57.310000Z</time>
      </trkpt>
      <trkpt lat="31.40029782247016" lon="120.90498284108082">
        <time>2026-09-11T12:40:09.310000Z</time>
      </trkpt>
      <trkpt lat="31.400286711861728" lon="120.90531867213998">
        <time>2026-09-11T12:40:21.310000Z</time>
      </trkpt>
      <trkpt lat="31.400282579754837" lon="120.90569447530936">
        <time>2026-09-11T12:40:36.310000Z</time>
      </trkpt>
      <trkpt lat="31.40026244272866" lon="120.90607826785408">
        <time>2026-09-11T12:40:48.310000Z</time>
      </trkpt>
      <trkpt lat="31.400253311460773" lon="120.90642307405832">
        <time>2026-09-11T12:41:00.310000Z</time>
      </trkpt>
      <trkpt lat="31.40025520735736" lon="120.90668092428618">
        <time>2026-09-11T12:41:09.310000Z</time>
      </trkpt>
      <trkpt lat="31.40023707051401" lon="120.90702272199262">
        <time>2026-09-11T12:41:21.310000Z</time>
      </trkpt>
      <trkpt lat="31.40022500009611" lon="120.9071956175326">
        <time>2026-09-11T12:41:27.310000Z</time>
      </trkpt>
      <trkpt lat="31.4001719855435" lon="120.90726357999532">
        <time>2026-09-11T12:41:30.310000Z</time>
      </trkpt>
      <trkpt lat="31.40020989662603" lon="120.9074424654579">
        <time>2026-09-11T12:41:36.310000Z</time>
      </trkpt>
      <trkpt lat="31.400251846758554" lon="120.90752840787657">
        <time>2026-09-11T12:41:39.310000Z</time>
      </trkpt>
      <trkpt lat="31.40021577502562" lon="120.90771029495822">
        <time>2026-09-11T12:41:45.310000Z</time>
      </trkpt>
      <trkpt lat="31.40019461142169" lon="120.90807705767247">
        <time>2026-09-11T12:41:57.310000Z</time>
      </trkpt>
      <trkpt lat="31.400188442419395" lon="120.90843381879345">
        <time>2026-09-11T12:42:09.310000Z</time>
      </trkpt>
      <trkpt lat="31.40015228609343" lon="120.90877058956033">
        <time>2026-09-11T12:42:21.310000Z</time>
      </trkpt>
      <trkpt lat="31.40009813174678" lon="120.90910335862054">
        <time>2026-09-11T12:42:33.310000Z</time>
      </trkpt>
      <trkpt lat="31.40002597477964" lon="120.90944111958501">
        <time>2026-09-11T12:42:45.310000Z</time>
      </trkpt>
      <trkpt lat="31.399957814826596" lon="120.90977287864735">
        <time>2026-09-11T12:42:57.310000Z</time>
      </trkpt>
      <trkpt lat="31.399877658878314" lon="120.9100946405114">
        <time>2026-09-11T12:43:09.410000Z</time>
      </trkpt>
      <trkpt lat="31.399800477245225" lon="120.9104513690774">
        <time>2026-09-11T12:43:21.410000Z</time>
      </trkpt>
      <trkpt lat="31.3997422797996" lon="120.91081608284377">
        <time>2026-09-11T12:43:33.410000Z</time>
      </trkpt>
      <trkpt lat="31.39967908079746" lon="120.91117579405598">
        <time>2026-09-11T12:43:45.410000Z</time>
      </trkpt>
      <trkpt lat="31.399616876924505" lon="120.91153349997468">
        <time>2026-09-11T12:43:57.410000Z</time>
      </trkpt>
      <trkpt lat="31.399558659728118" lon="120.9119011900953">
        <time>2026-09-11T12:44:09.410000Z</time>
      </trkpt>
      <trkpt lat="31.399511442568212" lon="120.91225488447938">
        <time>2026-09-11T12:44:21.410000Z</time>
      </trkpt>
      <trkpt lat="31.39945619701013" lon="120.91264553942034">
        <time>2026-09-11T12:44:36.410000Z</time>
      </trkpt>
      <trkpt lat="31.399391955409303" lon="120.91302419806216">
        <time>2026-09-11T12:44:48.410000Z</time>
      </trkpt>
      <trkpt lat="31.39936771244486" lon="120.91337986749635">
        <time>2026-09-11T12:45:00.410000Z</time>
      </trkpt>
      <trkpt lat="31.399344659859903" lon="120.9134627908847">
        <time>2026-09-11T12:45:03.410000Z</time>
      </trkpt>
      <trkpt lat="31.3994238775702" lon="120.91312310363986">
        <time>2026-09-11T12:45:15.410000Z</time>
      </trkpt>
      <trkpt lat="31.399481140511973" lon="120.91271847120352">
        <time>2026-09-11T12:45:27.410000Z</time>
      </trkpt>
      <trkpt lat="31.39951626101741" lon="120.91252564264981">
        <time>2026-09-11T12:45:33.410000Z</time>
      </trkpt>
      <trkpt lat="31.39951431977293" lon="120.9124387207436">
        <time>2026-09-11T12:45:36.410000Z</time>
      </trkpt>
      <trkpt lat="31.39945637397648" lon="120.91238177633932">
        <time>2026-09-11T12:45:39.410000Z</time>
      </trkpt>
      <trkpt lat="31.399380416527027" lon="120.91234981103763">
        <time>2026-09-11T12:45:42.410000Z</time>
      </trkpt>
      <trkpt lat="31.399215464812926" lon="120.91234682723548">
        <time>2026-09-11T12:45:48.410000Z</time>
      </trkpt>
      <trkpt lat="31.399134474951573" lon="120.9123658169868">
        <time>2026-09-11T12:45:51.410000Z</time>
      </trkpt>
      <trkpt lat="31.39884441405052" lon="120.91257865009149">
        <time>2026-09-11T12:46:03.410000Z</time>
      </trkpt>
      <trkpt lat="31.39856538831984" lon="120.91273253360784">
        <time>2026-09-11T12:46:15.410000Z</time>
      </trkpt>
      <trkpt lat="31.39841941309115" lon="120.91275652374897">
        <time>2026-09-11T12:46:21.410000Z</time>
      </trkpt>
      <trkpt lat="31.398138547321263" lon="120.9126756203577">
        <time>2026-09-11T12:46:33.410000Z</time>
      </trkpt>
      <trkpt lat="31.39798458737492" lon="120.91268062845676">
        <time>2026-09-11T12:46:39.410000Z</time>
      </trkpt>
      <trkpt lat="31.397910593336313" lon="120.9127026145743">
        <time>2026-09-11T12:46:42.410000Z</time>
      </trkpt>
      <trkpt lat="31.397841582222433" lon="120.91274757934339">
        <time>2026-09-11T12:46:45.410000Z</time>
      </trkpt>
      <trkpt lat="31.3975966193862" lon="120.91279455661427">
        <time>2026-09-11T12:46:54.410000Z</time>
      </trkpt>
      <trkpt lat="31.397352706133717" lon="120.9127686003283">
        <time>2026-09-11T12:47:03.410000Z</time>
      </trkpt>
      <trkpt lat="31.39705672839468" lon="120.91285854240081">
        <time>2026-09-11T12:47:15.410000Z</time>
      </trkpt>
      <trkpt lat="31.396800675385496" lon="120.913040395847">
        <time>2026-09-11T12:47:27.410000Z</time>
      </trkpt>
      <trkpt lat="31.396541586643373" lon="120.91327220095522">
        <time>2026-09-11T12:47:39.410000Z</time>
      </trkpt>
      <trkpt lat="31.39626152081488" lon="120.91347703055737">
        <time>2026-09-11T12:47:51.410000Z</time>
      </trkpt>
      <trkpt lat="31.3959545307942" lon="120.91358495296876">
        <time>2026-09-11T12:48:03.410000Z</time>
      </trkpt>
      <trkpt lat="31.39570558085035" lon="120.9136139456901">
        <time>2026-09-11T12:48:12.410000Z</time>
      </trkpt>
      <trkpt lat="31.395468683642555" lon="120.91356501190562">
        <time>2026-09-11T12:48:21.410000Z</time>
      </trkpt>
      <trkpt lat="31.395266829228706" lon="120.91344214533191">
        <time>2026-09-11T12:48:30.410000Z</time>
      </trkpt>
      <trkpt lat="31.395161954948914" lon="120.91330728127721">
        <time>2026-09-11T12:48:36.410000Z</time>
      </trkpt>
      <trkpt lat="31.3951260194697" lon="120.91323035642294">
        <time>2026-09-11T12:48:39.410000Z</time>
      </trkpt>
      <trkpt lat="31.395014122907018" lon="120.91312846075498">
        <time>2026-09-11T12:48:45.410000Z</time>
      </trkpt>
      <trkpt lat="31.394727255817415" lon="120.91305555204643">
        <time>2026-09-11T12:48:57.410000Z</time>
      </trkpt>
      <trkpt lat="31.39456732451811" lon="120.91302259570338">
        <time>2026-09-11T12:49:03.410000Z</time>
      </trkpt>
      <trkpt lat="31.394483336088246" lon="120.913040585943">
        <time>2026-09-11T12:49:06.410000Z</time>
      </trkpt>
      <trkpt lat="31.394213246295998" lon="120.91327938539177">
        <time>2026-09-11T12:49:18.410000Z</time>
      </trkpt>
      <trkpt lat="31.393988234460696" lon="120.91338730221581">
        <time>2026-09-11T12:49:27.410000Z</time>
      </trkpt>
      <trkpt lat="31.39367426273291" lon="120.91347424564856">
        <time>2026-09-11T12:49:39.410000Z</time>
      </trkpt>
      <trkpt lat="31.393513280440676" lon="120.91351422086962">
        <time>2026-09-11T12:49:45.410000Z</time>
      </trkpt>
      <trkpt lat="31.393235223694276" lon="120.91370406209113">
        <time>2026-09-11T12:49:57.410000Z</time>
      </trkpt>
      <trkpt lat="31.393024198001704" lon="120.91382296469337">
        <time>2026-09-11T12:50:06.410000Z</time>
      </trkpt>
      <trkpt lat="31.392788222939974" lon="120.91388192689968">
        <time>2026-09-11T12:50:15.410000Z</time>
      </trkpt>
      <trkpt lat="31.392553305400046" lon="120.91386196556462">
        <time>2026-09-11T12:50:24.410000Z</time>
      </trkpt>
      <trkpt lat="31.392477345614555" lon="120.91383699600837">
        <time>2026-09-11T12:50:27.410000Z</time>
      </trkpt>
      <trkpt lat="31.392408398353783" lon="120.91379204516315">
        <time>2026-09-11T12:50:30.410000Z</time>
      </trkpt>
      <trkpt lat="31.392364478575814" lon="120.91369913832244">
        <time>2026-09-11T12:50:33.410000Z</time>
      </trkpt>
      <trkpt lat="31.392340555507634" lon="120.91360223320322">
        <time>2026-09-11T12:50:36.410000Z</time>
      </trkpt>
      <trkpt lat="31.39234061935725" lon="120.91351331801282">
        <time>2026-09-11T12:50:39.410000Z</time>
      </trkpt>
      <trkpt lat="31.39229572569635" lon="120.91338244576868">
        <time>2026-09-11T12:50:45.410000Z</time>
      </trkpt>
      <trkpt lat="31.392292771879426" lon="120.91331850629503">
        <time>2026-09-11T12:50:48.410000Z</time>
      </trkpt>
      <trkpt lat="31.39235188198464" lon="120.91313767075798">
        <time>2026-09-11T12:50:54.410000Z</time>
      </trkpt>
      <trkpt lat="31.392600998369744" lon="120.91286590148228">
        <time>2026-09-11T12:51:06.410000Z</time>
      </trkpt>
      <trkpt lat="31.39265103595607" lon="120.91278996685091">
        <time>2026-09-11T12:51:09.410000Z</time>
      </trkpt>
      <trkpt lat="31.392713206128796" lon="120.9125122132572">
        <time>2026-09-11T12:51:18.410000Z</time>
      </trkpt>
      <trkpt lat="31.392669468299548" lon="120.91213555134256">
        <time>2026-09-11T12:51:30.410000Z</time>
      </trkpt>
      <trkpt lat="31.392654593349096" lon="120.91194971480581">
        <time>2026-09-11T12:51:36.410000Z</time>
      </trkpt>
      <trkpt lat="31.392666649660065" lon="120.91185679424797">
        <time>2026-09-11T12:51:39.410000Z</time>
      </trkpt>
      <trkpt lat="31.392700696048838" lon="120.91176886713839">
        <time>2026-09-11T12:51:42.410000Z</time>
      </trkpt>
      <trkpt lat="31.392907823436932" lon="120.91147210253673">
        <time>2026-09-11T12:51:54.410000Z</time>
      </trkpt>
      <trkpt lat="31.393021873686756" lon="120.91133820551669">
        <time>2026-09-11T12:52:00.410000Z</time>
      </trkpt>
      <trkpt lat="31.393307898023313" lon="120.91116432649925">
        <time>2026-09-11T12:52:12.410000Z</time>
      </trkpt>
      <trkpt lat="31.39337890496444" lon="120.91111935776867">
        <time>2026-09-11T12:52:15.410000Z</time>
      </trkpt>
      <trkpt lat="31.393431934534" lon="120.91104541418187">
        <time>2026-09-11T12:52:18.410000Z</time>
      </trkpt>
      <trkpt lat="31.393455981807005" lon="120.91095548571647">
        <time>2026-09-11T12:52:21.410000Z</time>
      </trkpt>
      <trkpt lat="31.39344219305129" lon="120.91060576860497">
        <time>2026-09-11T12:52:33.410000Z</time>
      </trkpt>
      <trkpt lat="31.393424349728956" lon="120.91034397671372">
        <time>2026-09-11T12:52:42.410000Z</time>
      </trkpt>
      <trkpt lat="31.393396404564868" lon="120.91026204292926">
        <time>2026-09-11T12:52:45.410000Z</time>
      </trkpt>
      <trkpt lat="31.3932026217501" lon="120.90997527973245">
        <time>2026-09-11T12:52:57.410000Z</time>
      </trkpt>
      <trkpt lat="31.392999832429005" lon="120.90969850541534">
        <time>2026-09-11T12:53:09.410000Z</time>
      </trkpt>
      <trkpt lat="31.39283897910187" lon="120.90951265668696">
        <time>2026-09-11T12:53:18.410000Z</time>
      </trkpt>
      <trkpt lat="31.392585155828346" lon="120.9093178202835">
        <time>2026-09-11T12:53:30.410000Z</time>
      </trkpt>
      <trkpt lat="31.39232033668261" lon="120.90911798633834">
        <time>2026-09-11T12:53:42.410000Z</time>
      </trkpt>
      <trkpt lat="31.392269386989906" lon="120.90904903981968">
        <time>2026-09-11T12:53:45.410000Z</time>
      </trkpt>
      <trkpt lat="31.39220949053791" lon="120.90888016441916">
        <time>2026-09-11T12:53:51.410000Z</time>
      </trkpt>
      <trkpt lat="31.392196664795073" lon="120.90853840302971">
        <time>2026-09-11T12:54:03.410000Z</time>
      </trkpt>
      <trkpt lat="31.392173838097595" lon="120.90819363823631">
        <time>2026-09-11T12:54:24.410000Z</time>
      </trkpt>
      <trkpt lat="31.392190019972617" lon="120.90779389951514">
        <time>2026-09-11T12:54:39.410000Z</time>
      </trkpt>
      <trkpt lat="31.3922241572506" lon="120.90746710507389">
        <time>2026-09-11T12:54:51.410000Z</time>
      </trkpt>
      <trkpt lat="31.39226017243132" lon="120.90740913848427">
        <time>2026-09-11T12:54:54.410000Z</time>
      </trkpt>
      <trkpt lat="31.39251517762786" lon="120.90722822990796">
        <time>2026-09-11T12:55:09.510000Z</time>
      </trkpt>
      <trkpt lat="31.39276113072251" lon="120.90717224414755">
        <time>2026-09-11T12:55:18.410000Z</time>
      </trkpt>
      <trkpt lat="31.393096000951388" lon="120.90724916935467">
        <time>2026-09-11T12:55:30.410000Z</time>
      </trkpt>
      <trkpt lat="31.393307881950772" lon="120.90738206946862">
        <time>2026-09-11T12:55:39.410000Z</time>
      </trkpt>
      <trkpt lat="31.393486742252655" lon="120.90758092958352">
        <time>2026-09-11T12:55:48.410000Z</time>
      </trkpt>
      <trkpt lat="31.39362555441641" lon="120.9079057091648">
        <time>2026-09-11T12:56:00.410000Z</time>
      </trkpt>
      <trkpt lat="31.393700424394698" lon="120.90813755036763">
        <time>2026-09-11T12:56:09.510000Z</time>
      </trkpt>
      <trkpt lat="31.393787331812362" lon="120.90827944839182">
        <time>2026-09-11T12:56:15.510000Z</time>
      </trkpt>
      <trkpt lat="31.394036164074507" lon="120.90847829326094">
        <time>2026-09-11T12:56:27.510000Z</time>
      </trkpt>
      <trkpt lat="31.394319998494304" lon="120.90864915253287">
        <time>2026-09-11T12:56:39.510000Z</time>
      </trkpt>
      <trkpt lat="31.394560898622696" lon="120.90871108981061">
        <time>2026-09-11T12:56:48.510000Z</time>
      </trkpt>
      <trkpt lat="31.394717858665885" lon="120.90870108388665">
        <time>2026-09-11T12:56:54.510000Z</time>
      </trkpt>
      <trkpt lat="31.394941850110776" lon="120.90858914294024">
        <time>2026-09-11T12:57:03.510000Z</time>
      </trkpt>
      <trkpt lat="31.395217859770725" lon="120.9084082440131">
        <time>2026-09-11T12:57:15.510000Z</time>
      </trkpt>
      <trkpt lat="31.395352859885914" lon="120.90832828706435">
        <time>2026-09-11T12:57:21.510000Z</time>
      </trkpt>
      <trkpt lat="31.39568279361882" lon="120.90827029903797">
        <time>2026-09-11T12:57:33.510000Z</time>
      </trkpt>
      <trkpt lat="31.396017710172522" lon="120.90824528834455">
        <time>2026-09-11T12:57:45.510000Z</time>
      </trkpt>
      <trkpt lat="31.39633358724447" lon="120.90831421609285">
        <time>2026-09-11T12:57:57.510000Z</time>
      </trkpt>
      <trkpt lat="31.396496536127785" lon="120.90832419599386">
        <time>2026-09-11T12:58:03.510000Z</time>
      </trkpt>
      <trkpt lat="31.39681446700722" lon="120.9082801995384">
        <time>2026-09-11T12:58:15.510000Z</time>
      </trkpt>
      <trkpt lat="31.397148393867973" lon="120.90823520233778">
        <time>2026-09-11T12:58:27.510000Z</time>
      </trkpt>
      <trkpt lat="31.397473315710176" lon="120.90820619508823">
        <time>2026-09-11T12:58:39.510000Z</time>
      </trkpt>
      <trkpt lat="31.397738276371506" lon="120.90813122330582">
        <time>2026-09-11T12:58:51.510000Z</time>
      </trkpt>
      <trkpt lat="31.397820250848792" lon="120.90813621326443">
        <time>2026-09-11T12:58:54.510000Z</time>
      </trkpt>
      <trkpt lat="31.397977177610258" lon="120.90819715978441">
        <time>2026-09-11T12:59:00.510000Z</time>
      </trkpt>
      <trkpt lat="31.398112098469166" lon="120.90828309112732">
        <time>2026-09-11T12:59:06.510000Z</time>
      </trkpt>
      <trkpt lat="31.39836290451335" lon="120.9085368981593">
        <time>2026-09-11T12:59:18.510000Z</time>
      </trkpt>
      <trkpt lat="31.39850481075744" lon="120.90864581148617">
        <time>2026-09-11T12:59:24.510000Z</time>
      </trkpt>
      <trkpt lat="31.398815654417557" lon="120.90878369008854">
        <time>2026-09-11T12:59:36.510000Z</time>
      </trkpt>
      <trkpt lat="31.399129510197486" lon="120.90889458647207">
        <time>2026-09-11T12:59:48.510000Z</time>
      </trkpt>
      <trkpt lat="31.399452386009166" lon="120.90896051337721">
        <time>2026-09-11T13:00:00.510000Z</time>
      </trkpt>
      <trkpt lat="31.399766246293108" lon="120.90906141585008">
        <time>2026-09-11T13:00:12.510000Z</time>
      </trkpt>
      <trkpt lat="31.399992135519" lon="120.9091533314607">
        <time>2026-09-11T13:00:21.510000Z</time>
      </trkpt>
      <trkpt lat="31.400055089306026" lon="120.90920828670684">
        <time>2026-09-11T13:00:24.510000Z</time>
      </trkpt>
      <trkpt lat="31.400075038207774" lon="120.90929522211583">
        <time>2026-09-11T13:00:27.510000Z</time>
      </trkpt>
      <trkpt lat="31.399973874531593" lon="120.9096549656239">
        <time>2026-09-11T13:00:39.510000Z</time>
      </trkpt>
      <trkpt lat="31.399891694684406" lon="120.9100236937926">
        <time>2026-09-11T13:00:51.510000Z</time>
      </trkpt>
      <trkpt lat="31.39981150756768" lon="120.91039341376151">
        <time>2026-09-11T13:01:03.510000Z</time>
      </trkpt>
      <trkpt lat="31.399760316796257" lon="120.91074513852712">
        <time>2026-09-11T13:01:15.510000Z</time>
      </trkpt>
      <trkpt lat="31.399698113203666" lon="120.91111384361534">
        <time>2026-09-11T13:01:27.510000Z</time>
      </trkpt>
      <trkpt lat="31.399651874002277" lon="120.91152250639838">
        <time>2026-09-11T13:01:39.510000Z</time>
      </trkpt>
      <trkpt lat="31.399596637503155" lon="120.9119191714042">
        <time>2026-09-11T13:01:51.510000Z</time>
      </trkpt>
      <trkpt lat="31.399530423400662" lon="120.9122758643531">
        <time>2026-09-11T13:02:03.510000Z</time>
      </trkpt>
      <trkpt lat="31.399502382979282" lon="120.91234880192074">
        <time>2026-09-11T13:02:06.510000Z</time>
      </trkpt>
      <trkpt lat="31.399426380395614" lon="120.91238477612829">
        <time>2026-09-11T13:02:09.510000Z</time>
      </trkpt>
      <trkpt lat="31.399255448282492" lon="120.91235481684505">
        <time>2026-09-11T13:02:15.510000Z</time>
      </trkpt>
      <trkpt lat="31.399168465405463" lon="120.9123658141984">
        <time>2026-09-11T13:02:18.510000Z</time>
      </trkpt>
      <trkpt lat="31.39887743032476" lon="120.91254068157984">
        <time>2026-09-11T13:02:30.510000Z</time>
      </trkpt>
      <trkpt lat="31.398627386503104" lon="120.91270954941744">
        <time>2026-09-11T13:02:42.510000Z</time>
      </trkpt>
      <trkpt lat="31.398496394131843" lon="120.91275252107484">
        <time>2026-09-11T13:02:48.510000Z</time>
      </trkpt>
      <trkpt lat="31.39821051685087" lon="120.9126906008564">
        <time>2026-09-11T13:03:00.510000Z</time>
      </trkpt>
      <trkpt lat="31.39806857857745" lon="120.91265864149335">
        <time>2026-09-11T13:03:06.510000Z</time>
      </trkpt>
      <trkpt lat="31.39799059787595" lon="120.91266264426935">
        <time>2026-09-11T13:03:09.510000Z</time>
      </trkpt>
      <trkpt lat="31.39767660360513" lon="120.91278455917424">
        <time>2026-09-11T13:03:21.510000Z</time>
      </trkpt>
      <trkpt lat="31.397439664461523" lon="120.91279357040243">
        <time>2026-09-11T13:03:30.510000Z</time>
      </trkpt>
      <trkpt lat="31.397359695285527" lon="120.9127815879071">
        <time>2026-09-11T13:03:33.510000Z</time>
      </trkpt>
      <trkpt lat="31.39705172295018" lon="120.91286853365064">
        <time>2026-09-11T13:03:45.510000Z</time>
      </trkpt>
      <trkpt lat="31.396835689032315" lon="120.91300642441074">
        <time>2026-09-11T13:03:54.510000Z</time>
      </trkpt>
      <trkpt lat="31.39659460676728" lon="120.91322224343092">
        <time>2026-09-11T13:04:06.510000Z</time>
      </trkpt>
      <trkpt lat="31.396335522599593" lon="120.91344505481877">
        <time>2026-09-11T13:04:18.510000Z</time>
      </trkpt>
      <trkpt lat="31.396033491769494" lon="120.91360792452379">
        <time>2026-09-11T13:04:30.510000Z</time>
      </trkpt>
      <trkpt lat="31.39579152390492" lon="120.91365889556474">
        <time>2026-09-11T13:04:39.510000Z</time>
      </trkpt>
      <trkpt lat="31.39563458018738" lon="120.91364292376801">
        <time>2026-09-11T13:04:45.510000Z</time>
      </trkpt>
      <trkpt lat="31.395403712947044" lon="120.91355003153079">
        <time>2026-09-11T13:04:54.510000Z</time>
      </trkpt>
      <trkpt lat="31.395214894528852" lon="120.9133712166857">
        <time>2026-09-11T13:05:03.510000Z</time>
      </trkpt>
      <trkpt lat="31.395055092326608" lon="120.91315543226054">
        <time>2026-09-11T13:05:12.510000Z</time>
      </trkpt>
      <trkpt lat="31.394899180881993" lon="120.91309250363494">
        <time>2026-09-11T13:05:18.510000Z</time>
      </trkpt>
      <trkpt lat="31.39458930642684" lon="120.91303957817581">
        <time>2026-09-11T13:05:30.510000Z</time>
      </trkpt>
      <trkpt lat="31.39450533256292" lon="120.9130365878401">
        <time>2026-09-11T13:05:33.510000Z</time>
      </trkpt>
      <trkpt lat="31.39443331913203" lon="120.9130855483458">
        <time>2026-09-11T13:05:36.510000Z</time>
      </trkpt>
      <trkpt lat="31.39416922644349" lon="120.91332534579007">
        <time>2026-09-11T13:05:48.510000Z</time>
      </trkpt>
      <trkpt lat="31.394093221349053" lon="120.91336331624252">
        <time>2026-09-11T13:05:51.510000Z</time>
      </trkpt>
      <trkpt lat="31.39375527223632" lon="120.91342828258031">
        <time>2026-09-11T13:06:03.510000Z</time>
      </trkpt>
      <trkpt lat="31.393582307720028" lon="120.91344827783601">
        <time>2026-09-11T13:06:09.510000Z</time>
      </trkpt>
      <trkpt lat="31.393497312910974" lon="120.91347525921532">
        <time>2026-09-11T13:06:12.510000Z</time>
      </trkpt>
      <trkpt lat="31.393290277156623" lon="120.91360814956452">
        <time>2026-09-11T13:06:21.510000Z</time>
      </trkpt>
      <trkpt lat="31.39307921856476" lon="120.91377300846851">
        <time>2026-09-11T13:06:30.510000Z</time>
      </trkpt>
      <trkpt lat="31.392842214681384" lon="120.91387193217027">
        <time>2026-09-11T13:06:39.510000Z</time>
      </trkpt>
      <trkpt lat="31.392668259763315" lon="120.91387893965106">
        <time>2026-09-11T13:06:45.510000Z</time>
      </trkpt>
      <trkpt lat="31.392497360259974" lon="120.91380902144522">
        <time>2026-09-11T13:06:51.510000Z</time>
      </trkpt>
      <trkpt lat="31.392425430510105" lon="120.9137410929346">
        <time>2026-09-11T13:06:54.510000Z</time>
      </trkpt>
      <trkpt lat="31.392320671544294" lon="120.91344838132632">
        <time>2026-09-11T13:07:03.510000Z</time>
      </trkpt>
      <trkpt lat="31.392293746122906" lon="120.91335447233214">
        <time>2026-09-11T13:07:06.510000Z</time>
      </trkpt>
      <trkpt lat="31.392295816143356" lon="120.9132545661115">
        <time>2026-09-11T13:07:09.510000Z</time>
      </trkpt>
      <trkpt lat="31.392334868023305" lon="120.91316464700772">
        <time>2026-09-11T13:07:12.610000Z</time>
      </trkpt>
      <trkpt lat="31.392562980481863" lon="120.91290786607586">
        <time>2026-09-11T13:07:24.610000Z</time>
      </trkpt>
      <trkpt lat="31.392651040734343" lon="120.91278297323387">
        <time>2026-09-11T13:07:30.610000Z</time>
      </trkpt>
      <trkpt lat="31.39269815669479" lon="120.91259214253739">
        <time>2026-09-11T13:07:36.610000Z</time>
      </trkpt>
      <trkpt lat="31.392710305694866" lon="120.91236434571218">
        <time>2026-09-11T13:07:42.610000Z</time>
      </trkpt>
      <trkpt lat="31.392670511025656" lon="120.9120696090381">
        <time>2026-09-11T13:07:51.610000Z</time>
      </trkpt>
      <trkpt lat="31.392679636293202" lon="120.91187178024133">
        <time>2026-09-11T13:07:57.610000Z</time>
      </trkpt>
      <trkpt lat="31.392703688176947" lon="120.91177985745524">
        <time>2026-09-11T13:08:00.610000Z</time>
      </trkpt>
      <trkpt lat="31.39290981787263" lon="120.9114800956365">
        <time>2026-09-11T13:08:12.610000Z</time>
      </trkpt>
      <trkpt lat="31.39314988972073" lon="120.91125226660908">
        <time>2026-09-11T13:08:24.610000Z</time>
      </trkpt>
      <trkpt lat="31.39334591142437" lon="120.91112435635827">
        <time>2026-09-11T13:08:33.610000Z</time>
      </trkpt>
      <trkpt lat="31.393405932949726" lon="120.9110604040211">
        <time>2026-09-11T13:08:36.610000Z</time>
      </trkpt>
      <trkpt lat="31.39344397565439" lon="120.91097147366472">
        <time>2026-09-11T13:08:39.610000Z</time>
      </trkpt>
      <trkpt lat="31.39344619248464" lon="120.91060476907269">
        <time>2026-09-11T13:08:51.610000Z</time>
      </trkpt>
      <trkpt lat="31.39343930696597" lon="120.91041092299069">
        <time>2026-09-11T13:08:57.610000Z</time>
      </trkpt>
      <trkpt lat="31.393373426520053" lon="120.9102350657832">
        <time>2026-09-11T13:09:03.610000Z</time>
      </trkpt>
      <trkpt lat="31.393171657298964" lon="120.90992731879034">
        <time>2026-09-11T13:09:15.610000Z</time>
      </trkpt>
      <trkpt lat="31.392956875712287" lon="120.90964155144904">
        <time>2026-09-11T13:09:27.610000Z</time>
      </trkpt>
      <trkpt lat="31.39270507101571" lon="120.90941274114252">
        <time>2026-09-11T13:09:39.610000Z</time>
      </trkpt>
      <trkpt lat="31.392441251357013" lon="120.90921490668462">
        <time>2026-09-11T13:09:51.610000Z</time>
      </trkpt>
      <trkpt lat="31.392311345484607" lon="120.90910599566834">
        <time>2026-09-11T13:09:57.610000Z</time>
      </trkpt>
      <trkpt lat="31.392263398479884" lon="120.90903005384267">
        <time>2026-09-11T13:10:00.610000Z</time>
      </trkpt>
      <trkpt lat="31.392205605945716" lon="120.90865232380214">
        <time>2026-09-11T13:10:12.610000Z</time>
      </trkpt>
      <trkpt lat="31.392182793496318" lon="120.90828157858655">
        <time>2026-09-11T13:10:24.610000Z</time>
      </trkpt>
      <trkpt lat="31.39218997586952" lon="120.90788983726978">
        <time>2026-09-11T13:10:36.610000Z</time>
      </trkpt>
      <trkpt lat="31.392187099718846" lon="120.90762001133132">
        <time>2026-09-11T13:10:45.610000Z</time>
      </trkpt>
      <trkpt lat="31.39214214765144" lon="120.90754206451052">
        <time>2026-09-11T13:10:48.610000Z</time>
      </trkpt>
      <trkpt lat="31.39185631083874" lon="120.90736020216906">
        <time>2026-09-11T13:11:00.610000Z</time>
      </trkpt>
      <trkpt lat="31.39153946224948" lon="120.90722331296342">
        <time>2026-09-11T13:11:12.610000Z</time>
      </trkpt>
      <trkpt lat="31.391458477968605" lon="120.90724130851372">
        <time>2026-09-11T13:11:15.610000Z</time>
      </trkpt>
      <trkpt lat="31.391374458445338" lon="120.9073422528669">
        <time>2026-09-11T13:11:21.610000Z</time>
      </trkpt>
      <trkpt lat="31.391425451503412" lon="120.90732425987149">
        <time>2026-09-11T13:11:24.610000Z</time>
      </trkpt>
      <trkpt lat="31.39148146523956" lon="120.90725529799388">
        <time>2026-09-11T13:11:27.610000Z</time>
      </trkpt>
      <trkpt lat="31.391534464130995" lon="120.90722231398857">
        <time>2026-09-11T13:11:30.610000Z</time>
      </trkpt>
      <trkpt lat="31.391580475742234" lon="120.9071643458239">
        <time>2026-09-11T13:11:33.610000Z</time>
      </trkpt>
      <trkpt lat="31.39164154083136" lon="120.90696945921985">
        <time>2026-09-11T13:11:39.610000Z</time>
      </trkpt>
      <trkpt lat="31.391732580270467" lon="120.90681154621116">
        <time>2026-09-11T13:11:45.610000Z</time>
      </trkpt>
      <trkpt lat="31.39180066562086" lon="120.90655369201332">
        <time>2026-09-11T13:11:54.610000Z</time>
      </trkpt>
      <trkpt lat="31.39183969185449" lon="120.90645974309076">
        <time>2026-09-11T13:11:57.610000Z</time>
      </trkpt>
      <trkpt lat="31.39190081919572" lon="120.90608694882799">
        <time>2026-09-11T13:12:09.610000Z</time>
      </trkpt>
      <trkpt lat="31.391977890222506" lon="120.90583807908706">
        <time>2026-09-11T13:12:18.610000Z</time>
      </trkpt>
      <trkpt lat="31.392047901180817" lon="120.90575311921813">
        <time>2026-09-11T13:12:24.610000Z</time>
      </trkpt>
      <trkpt lat="31.39236279433274" lon="120.9057960702537">
        <time>2026-09-11T13:12:36.610000Z</time>
      </trkpt>
      <trkpt lat="31.392514768361785" lon="120.90574708417799">
        <time>2026-09-11T13:12:42.610000Z</time>
      </trkpt>
      <trkpt lat="31.392641773020276" lon="120.90563313464965">
        <time>2026-09-11T13:12:48.610000Z</time>
      </trkpt>
      <trkpt lat="31.392736802975993" lon="120.9054722116678">
        <time>2026-09-11T13:12:54.610000Z</time>
      </trkpt>
      <trkpt lat="31.39277282624526" lon="120.90537625862918">
        <time>2026-09-11T13:12:57.610000Z</time>
      </trkpt>
      <trkpt lat="31.392784880345257" lon="120.90520934330608">
        <time>2026-09-11T13:13:03.610000Z</time>
      </trkpt>
      <trkpt lat="31.39276194495776" lon="120.90503743187003">
        <time>2026-09-11T13:13:09.610000Z</time>
      </trkpt>
      <trkpt lat="31.392769972457337" lon="120.90494747594542">
        <time>2026-09-11T13:13:12.610000Z</time>
      </trkpt>
      <trkpt lat="31.392917969273267" lon="120.90482652328164">
        <time>2026-09-11T13:13:18.610000Z</time>
      </trkpt>
      <trkpt lat="31.39312997328634" lon="120.90462260440687">
        <time>2026-09-11T13:13:27.610000Z</time>
      </trkpt>
      <trkpt lat="31.393395966048047" lon="120.90439868822682">
        <time>2026-09-11T13:13:39.610000Z</time>
      </trkpt>
      <trkpt lat="31.39365395806282" lon="120.90417776868603">
        <time>2026-09-11T13:13:51.610000Z</time>
      </trkpt>
      <trkpt lat="31.393753966674964" lon="120.90404981815522">
        <time>2026-09-11T13:13:57.610000Z</time>
      </trkpt>
      <trkpt lat="31.393784985015117" lon="120.90395485785136">
        <time>2026-09-11T13:14:00.610000Z</time>
      </trkpt>
      <trkpt lat="31.393789012670325" lon="120.9038529023405">
        <time>2026-09-11T13:14:03.610000Z</time>
      </trkpt>
      <trkpt lat="31.393700143033016" lon="120.9034670742556">
        <time>2026-09-11T13:14:15.610000Z</time>
      </trkpt>
      <trkpt lat="31.39363923441123" lon="120.90317919695498">
        <time>2026-09-11T13:14:24.610000Z</time>
      </trkpt>
      <trkpt lat="31.393555300411712" lon="120.90300927125863">
        <time>2026-09-11T13:14:30.610000Z</time>
      </trkpt>
      <trkpt lat="31.393483334382335" lon="120.90295429864358">
        <time>2026-09-11T13:14:33.610000Z</time>
      </trkpt>
      <trkpt lat="31.393158452876737" lon="120.90284936584449">
        <time>2026-09-11T13:14:45.610000Z</time>
      </trkpt>
      <trkpt lat="31.392863552864373" lon="120.90278541445785">
        <time>2026-09-11T13:14:57.610000Z</time>
      </trkpt>
      <trkpt lat="31.392778581789482" lon="120.90276642863711">
        <time>2026-09-11T13:15:00.610000Z</time>
      </trkpt>
      <trkpt lat="31.39242868283802" lon="120.90276645730827">
        <time>2026-09-11T13:15:12.610000Z</time>
      </trkpt>
      <trkpt lat="31.392347709250757" lon="120.90275346886993">
        <time>2026-09-11T13:15:15.710000Z</time>
      </trkpt>
      <trkpt lat="31.39227873931455" lon="120.90270949113">
        <time>2026-09-11T13:15:18.610000Z</time>
      </trkpt>
      <trkpt lat="31.392180816511107" lon="120.90249157993689">
        <time>2026-09-11T13:15:27.710000Z</time>
      </trkpt>
      <trkpt lat="31.3921698588595" lon="120.90230964635983">
        <time>2026-09-11T13:15:33.710000Z</time>
      </trkpt>
      <trkpt lat="31.392182874336346" lon="120.90221767775223">
        <time>2026-09-11T13:15:36.710000Z</time>
      </trkpt>
      <trkpt lat="31.39221688356616" lon="120.90212470732443">
        <time>2026-09-11T13:15:39.710000Z</time>
      </trkpt>
      <trkpt lat="31.39239587904431" lon="120.9018857737293">
        <time>2026-09-11T13:15:48.710000Z</time>
      </trkpt>
      <trkpt lat="31.39244187777735" lon="120.90182279083021">
        <time>2026-09-11T13:15:51.710000Z</time>
      </trkpt>
      <trkpt lat="31.3925168653427" lon="120.90177380077385">
        <time>2026-09-11T13:15:54.710000Z</time>
      </trkpt>
      <trkpt lat="31.392842766746067" lon="120.90179776620653">
        <time>2026-09-11T13:16:06.710000Z</time>
      </trkpt>
      <trkpt lat="31.393172668235938" lon="120.90181573325721">
        <time>2026-09-11T13:16:18.710000Z</time>
      </trkpt>
      <trkpt lat="31.39340859498326" lon="120.90184370468613">
        <time>2026-09-11T13:16:27.710000Z</time>
      </trkpt>
      <trkpt lat="31.393722524811075" lon="120.90173671404904">
        <time>2026-09-11T13:16:39.710000Z</time>
      </trkpt>
      <trkpt lat="31.39379750881169" lon="120.90170671763408">
        <time>2026-09-11T13:16:42.710000Z</time>
      </trkpt>
      <trkpt lat="31.393961465577018" lon="120.90168571098181">
        <time>2026-09-11T13:16:48.710000Z</time>
      </trkpt>
      <trkpt lat="31.394267376690728" lon="120.90169168397986">
        <time>2026-09-11T13:17:00.710000Z</time>
      </trkpt>
      <trkpt lat="31.394624272763426" lon="120.9017006518285">
        <time>2026-09-11T13:17:12.710000Z</time>
      </trkpt>
      <trkpt lat="31.394910199360165" lon="120.90165464321096">
        <time>2026-09-11T13:17:21.710000Z</time>
      </trkpt>
      <trkpt lat="31.39523712938845" lon="120.90152365799418">
        <time>2026-09-11T13:17:33.710000Z</time>
      </trkpt>
      <trkpt lat="31.39555705839024" lon="120.90140666814598">
        <time>2026-09-11T13:17:45.710000Z</time>
      </trkpt>
      <trkpt lat="31.39584399928134" lon="120.90127168570278">
        <time>2026-09-11T13:17:57.710000Z</time>
      </trkpt>
      <trkpt lat="31.39600696383008" lon="120.90120469237641">
        <time>2026-09-11T13:18:03.710000Z</time>
      </trkpt>
      <trkpt lat="31.3962039304991" lon="120.90106171819373">
        <time>2026-09-11T13:18:12.710000Z</time>
      </trkpt>
      <trkpt lat="31.396332902780287" lon="120.90100372433717">
        <time>2026-09-11T13:18:18.710000Z</time>
      </trkpt>
      <trkpt lat="31.396648840302507" lon="120.90082075002073">
        <time>2026-09-11T13:18:30.710000Z</time>
      </trkpt>
      <trkpt lat="31.396983755899214" lon="120.90074674293237">
        <time>2026-09-11T13:18:42.710000Z</time>
      </trkpt>
      <trkpt lat="31.39733566086831" lon="120.90071372308064">
        <time>2026-09-11T13:18:54.710000Z</time>
      </trkpt>
      <trkpt lat="31.397503612223343" lon="120.90072170714467">
        <time>2026-09-11T13:19:00.710000Z</time>
      </trkpt>
      <trkpt lat="31.397834523863548" lon="120.90068469004964">
        <time>2026-09-11T13:19:12.710000Z</time>
      </trkpt>
      <trkpt lat="31.397959496422672" lon="120.90062769510762">
        <time>2026-09-11T13:19:18.710000Z</time>
      </trkpt>
      <trkpt lat="31.398028490764123" lon="120.9005247166679">
        <time>2026-09-11T13:19:24.710000Z</time>
      </trkpt>
      <trkpt lat="31.398042495803647" lon="120.90045573344034">
        <time>2026-09-11T13:19:27.710000Z</time>
      </trkpt>
      <trkpt lat="31.39822148665365" lon="120.90011480367555">
        <time>2026-09-11T13:19:39.710000Z</time>
      </trkpt>
      <trkpt lat="31.398341486140758" lon="120.8998028661973">
        <time>2026-09-11T13:19:48.710000Z</time>
      </trkpt>
      <trkpt lat="31.398345496488457" lon="120.89968489190825">
        <time>2026-09-11T13:19:51.710000Z</time>
      </trkpt>
      <trkpt lat="31.39832152325616" lon="120.89946194109808">
        <time>2026-09-11T13:19:57.710000Z</time>
      </trkpt>
      <trkpt lat="31.398326531066648" lon="120.89934996342743">
        <time>2026-09-11T13:20:00.710000Z</time>
      </trkpt>
      <trkpt lat="31.398444524667166" lon="120.89897502513583">
        <time>2026-09-11T13:20:12.710000Z</time>
      </trkpt>
      <trkpt lat="31.398540507539423" lon="120.89880904652816">
        <time>2026-09-11T13:20:18.710000Z</time>
      </trkpt>
      <trkpt lat="31.3985675040679" lon="120.89873305723238">
        <time>2026-09-11T13:20:21.710000Z</time>
      </trkpt>
      <trkpt lat="31.398573506055946" lon="120.89866106869994">
        <time>2026-09-11T13:20:24.710000Z</time>
      </trkpt>
      <trkpt lat="31.39851054000178" lon="120.89826313510608">
        <time>2026-09-11T13:20:36.710000Z</time>
      </trkpt>
      <trkpt lat="31.39853354275011" lon="120.89786718599696">
        <time>2026-09-11T13:20:48.710000Z</time>
      </trkpt>
      <trkpt lat="31.398578532467145" lon="120.89758121537012">
        <time>2026-09-11T13:20:57.710000Z</time>
      </trkpt>
      <trkpt lat="31.39867450476276" lon="120.89735023111646">
        <time>2026-09-11T13:21:06.710000Z</time>
      </trkpt>
      <trkpt lat="31.398749483188254" lon="120.897298229907">
        <time>2026-09-11T13:21:12.710000Z</time>
      </trkpt>
      <trkpt lat="31.39895042728193" lon="120.89736620696101">
        <time>2026-09-11T13:21:21.710000Z</time>
      </trkpt>
      <trkpt lat="31.39924434499403" lon="120.89740917865565">
        <time>2026-09-11T13:21:30.710000Z</time>
      </trkpt>
      <trkpt lat="31.399581250761976" lon="120.89748014386915">
        <time>2026-09-11T13:21:42.710000Z</time>
      </trkpt>
      <trkpt lat="31.399907159530944" lon="120.89754111078625">
        <time>2026-09-11T13:21:54.710000Z</time>
      </trkpt>
      <trkpt lat="31.399992135749727" lon="120.89753710424705">
        <time>2026-09-11T13:21:57.710000Z</time>
      </trkpt>
      <trkpt lat="31.40006511530282" lon="120.89749710246188">
        <time>2026-09-11T13:22:00.710000Z</time>
      </trkpt>
      <trkpt lat="31.400284051782645" lon="120.89720711246024">
        <time>2026-09-11T13:22:12.710000Z</time>
      </trkpt>
      <trkpt lat="31.4003690253618" lon="120.89705511840441">
        <time>2026-09-11T13:22:18.710000Z</time>
      </trkpt>
      <trkpt lat="31.40044500351456" lon="120.89702611450544">
        <time>2026-09-11T13:22:21.710000Z</time>
      </trkpt>
      <trkpt lat="31.40076691347809" lon="120.89701708884">
        <time>2026-09-11T13:22:33.710000Z</time>
      </trkpt>
      <trkpt lat="31.400848890998905" lon="120.89703408077139">
        <time>2026-09-11T13:22:36.710000Z</time>
      </trkpt>
      <trkpt lat="31.40090987499952" lon="120.89708207187904">
        <time>2026-09-11T13:22:39.710000Z</time>
      </trkpt>
      <trkpt lat="31.40092387280986" lon="120.89717906249753">
        <time>2026-09-11T13:22:42.710000Z</time>
      </trkpt>
      <trkpt lat="31.400852895322323" lon="120.89756703051133">
        <time>2026-09-11T13:22:54.710000Z</time>
      </trkpt>
      <trkpt lat="31.400802905772142" lon="120.89793399167921">
        <time>2026-09-11T13:23:06.710000Z</time>
      </trkpt>
      <trkpt lat="31.40074891327906" lon="120.89824395440183">
        <time>2026-09-11T13:23:18.710000Z</time>
      </trkpt>
      <trkpt lat="31.40071190820099" lon="120.89863189820825">
        <time>2026-09-11T13:23:30.710000Z</time>
      </trkpt>
      <trkpt lat="31.400668898239754" lon="120.8990188348609">
        <time>2026-09-11T13:23:42.710000Z</time>
      </trkpt>
      <trkpt lat="31.40061688591051" lon="120.89938476870321">
        <time>2026-09-11T13:23:54.710000Z</time>
      </trkpt>
      <trkpt lat="31.400564870579593" lon="120.89972070216704">
        <time>2026-09-11T13:24:06.710000Z</time>
      </trkpt>
      <trkpt lat="31.400516847922198" lon="120.90006762679751">
        <time>2026-09-11T13:24:18.710000Z</time>
      </trkpt>
      <trkpt lat="31.400467817543724" lon="120.90043553983209">
        <time>2026-09-11T13:24:30.810000Z</time>
      </trkpt>
      <trkpt lat="31.400416780716327" lon="120.90081044400686">
        <time>2026-09-11T13:24:42.810000Z</time>
      </trkpt>
      <trkpt lat="31.400363743824787" lon="120.90115035130829">
        <time>2026-09-11T13:24:54.810000Z</time>
      </trkpt>
      <trkpt lat="31.400303700606344" lon="120.90150824748953">
        <time>2026-09-11T13:25:06.810000Z</time>
      </trkpt>
      <trkpt lat="31.400313631561566" lon="120.90186913020648">
        <time>2026-09-11T13:25:18.810000Z</time>
      </trkpt>
      <trkpt lat="31.400310559516306" lon="120.90223400573024">
        <time>2026-09-11T13:25:30.810000Z</time>
      </trkpt>
      <trkpt lat="31.400315478402597" lon="120.90260287210232">
        <time>2026-09-11T13:25:42.810000Z</time>
      </trkpt>
      <trkpt lat="31.400308400810893" lon="120.90294574240961">
        <time>2026-09-11T13:25:54.810000Z</time>
      </trkpt>
      <trkpt lat="31.400310308297186" lon="120.9033165943593">
        <time>2026-09-11T13:26:06.810000Z</time>
      </trkpt>
      <trkpt lat="31.400316206057745" lon="120.90369643486036">
        <time>2026-09-11T13:26:18.810000Z</time>
      </trkpt>
      <trkpt lat="31.40030415726937" lon="120.90388435435604">
        <time>2026-09-11T13:26:24.810000Z</time>
      </trkpt>
      <trkpt lat="31.4003180440323" lon="120.90426118416893">
        <time>2026-09-11T13:26:36.810000Z</time>
      </trkpt>
      <trkpt lat="31.4003219256448" lon="120.90464300488931">
        <time>2026-09-11T13:26:48.810000Z</time>
      </trkpt>
      <trkpt lat="31.400309804851954" lon="120.90502581869545">
        <time>2026-09-11T13:27:00.810000Z</time>
      </trkpt>
      <trkpt lat="31.400294679365356" lon="120.90540562653192">
        <time>2026-09-11T13:27:12.810000Z</time>
      </trkpt>
      <trkpt lat="31.400290544322214" lon="120.90578542581008">
        <time>2026-09-11T13:27:24.810000Z</time>
      </trkpt>
      <trkpt lat="31.400289405406582" lon="120.90615622221253">
        <time>2026-09-11T13:27:39.810000Z</time>
      </trkpt>
      <trkpt lat="31.400271275841934" lon="120.90650002830262">
        <time>2026-09-11T13:27:54.810000Z</time>
      </trkpt>
      <trkpt lat="31.40024512407687" lon="120.90688980131894">
        <time>2026-09-11T13:28:09.810000Z</time>
      </trkpt>
      <trkpt lat="31.40023098073848" lon="120.90723659181803">
        <time>2026-09-11T13:28:21.810000Z</time>
      </trkpt>
      <trkpt lat="31.400212814699486" lon="120.90762435017513">
        <time>2026-09-11T13:28:36.810000Z</time>
      </trkpt>
      <trkpt lat="31.40021564394495" lon="120.90799510997479">
        <time>2026-09-11T13:28:48.810000Z</time>
      </trkpt>
      <trkpt lat="31.400201458195433" lon="120.9083938448854">
        <time>2026-09-11T13:29:00.810000Z</time>
      </trkpt>
      <trkpt lat="31.4001552962732" lon="120.90874860465627">
        <time>2026-09-11T13:29:12.810000Z</time>
      </trkpt>
      <trkpt lat="31.400102114599814" lon="120.90913433608121">
        <time>2026-09-11T13:29:24.810000Z</time>
      </trkpt>
      <trkpt lat="31.400031944329534" lon="120.90949507939733">
        <time>2026-09-11T13:29:36.810000Z</time>
      </trkpt>
      <trkpt lat="31.39998485899358" lon="120.90967794757145">
        <time>2026-09-11T13:29:42.810000Z</time>
      </trkpt>
      <trkpt lat="31.399947823634086" lon="120.90976188772883">
        <time>2026-09-11T13:29:45.810000Z</time>
      </trkpt>
      <trkpt lat="31.399871635825583" lon="120.91013860713792">
        <time>2026-09-11T13:29:57.810000Z</time>
      </trkpt>
      <trkpt lat="31.39980145905014" lon="120.91048234455695">
        <time>2026-09-11T13:30:09.810000Z</time>
      </trkpt>
      <trkpt lat="31.39974025955337" lon="120.91085105473184">
        <time>2026-09-11T13:30:21.810000Z</time>
      </trkpt>
      <trkpt lat="31.39968604950842" lon="120.9112237537666">
        <time>2026-09-11T13:30:33.810000Z</time>
      </trkpt>
      <trkpt lat="31.399632837310552" lon="120.91158945124843">
        <time>2026-09-11T13:30:45.810000Z</time>
      </trkpt>
      <trkpt lat="31.399575649820804" lon="120.91190918178116">
        <time>2026-09-11T13:30:57.810000Z</time>
      </trkpt>
      <trkpt lat="31.399518420166252" lon="120.91228585648707">
        <time>2026-09-11T13:31:09.810000Z</time>
      </trkpt>
      <trkpt lat="31.399476382974093" lon="120.91235979427485">
        <time>2026-09-11T13:31:12.810000Z</time>
      </trkpt>
      <trkpt lat="31.39940138607772" lon="120.9123867763974">
        <time>2026-09-11T13:31:15.810000Z</time>
      </trkpt>
      <trkpt lat="31.399246450808313" lon="120.91235481758316">
        <time>2026-09-11T13:31:21.810000Z</time>
      </trkpt>
      <trkpt lat="31.39910145830154" lon="120.91240478496071">
        <time>2026-09-11T13:31:27.810000Z</time>
      </trkpt>
      <trkpt lat="31.398837397149634" lon="120.91260662542027">
        <time>2026-09-11T13:31:39.910000Z</time>
      </trkpt>
      <trkpt lat="31.398539375212383" lon="120.91276250844426">
        <time>2026-09-11T13:31:51.910000Z</time>
      </trkpt>
      <trkpt lat="31.398457393528503" lon="120.91276950879347">
        <time>2026-09-11T13:31:54.910000Z</time>
      </trkpt>
      <trkpt lat="31.39814254483792" lon="120.9126776182175">
        <time>2026-09-11T13:32:06.910000Z</time>
      </trkpt>
      <trkpt lat="31.39798758788399" lon="120.9126786300232">
        <time>2026-09-11T13:32:12.910000Z</time>
      </trkpt>
      <trkpt lat="31.397751596058374" lon="120.9127645712492">
        <time>2026-09-11T13:32:21.910000Z</time>
      </trkpt>
      <trkpt lat="31.397416685299437" lon="120.91277259143529">
        <time>2026-09-11T13:32:33.910000Z</time>
      </trkpt>
      <trkpt lat="31.397351703006986" lon="120.9127735958548">
        <time>2026-09-11T13:32:36.910000Z</time>
      </trkpt>
      <trkpt lat="31.397086710975504" lon="120.91287152803115">
        <time>2026-09-11T13:32:45.910000Z</time>
      </trkpt>
      <trkpt lat="31.397011707482655" lon="120.91290750115536">
        <time>2026-09-11T13:32:48.910000Z</time>
      </trkpt>
      <trkpt lat="31.396741639240553" lon="120.91311633019882">
        <time>2026-09-11T13:33:00.910000Z</time>
      </trkpt>
      <trkpt lat="31.39646956332163" lon="120.91333414861577">
        <time>2026-09-11T13:33:12.910000Z</time>
      </trkpt>
      <trkpt lat="31.396263508819963" lon="120.91349301520768">
        <time>2026-09-11T13:33:21.910000Z</time>
      </trkpt>
      <trkpt lat="31.39602450368271" lon="120.91359493768081">
        <time>2026-09-11T13:33:30.910000Z</time>
      </trkpt>
      <trkpt lat="31.39571056645901" lon="120.91363192806413">
        <time>2026-09-11T13:33:42.910000Z</time>
      </trkpt>
      <trkpt lat="31.395547630926906" lon="120.91360696533886">
        <time>2026-09-11T13:33:48.910000Z</time>
      </trkpt>
      <trkpt lat="31.395356760726177" lon="120.91350208104663">
        <time>2026-09-11T13:33:57.910000Z</time>
      </trkpt>
      <trkpt lat="31.395135011979157" lon="120.91323734913486">
        <time>2026-09-11T13:34:09.910000Z</time>
      </trkpt>
      <trkpt lat="31.394998128875883" lon="120.91312646392718">
        <time>2026-09-11T13:34:15.910000Z</time>
      </trkpt>
      <trkpt lat="31.39467927580462" lon="120.91304656431647">
        <time>2026-09-11T13:34:27.910000Z</time>
      </trkpt>
      <trkpt lat="31.394621297959624" lon="120.91303857647698">
        <time>2026-09-11T13:34:30.910000Z</time>
      </trkpt>
      <trkpt lat="31.394484290590917" lon="120.91310552559675">
        <time>2026-09-11T13:34:36.910000Z</time>
      </trkpt>
      <trkpt lat="31.39435524498928" lon="120.91322342619844">
        <time>2026-09-11T13:34:42.910000Z</time>
      </trkpt>
      <trkpt lat="31.394144220174415" lon="120.9133443299598">
        <time>2026-09-11T13:34:51.910000Z</time>
      </trkpt>
      <trkpt lat="31.39387324474351" lon="120.9134192814157">
        <time>2026-09-11T13:35:03.910000Z</time>
      </trkpt>
      <trkpt lat="31.393635292482738" lon="120.91344827348964">
        <time>2026-09-11T13:35:12.910000Z</time>
      </trkpt>
      <trkpt lat="31.393334264490996" lon="120.91360814595618">
        <time>2026-09-11T13:35:24.910000Z</time>
      </trkpt>
      <trkpt lat="31.393200252582332" lon="120.91367808992209">
        <time>2026-09-11T13:35:30.910000Z</time>
      </trkpt>
      <trkpt lat="31.393057192137945" lon="120.91381796682161">
        <time>2026-09-11T13:35:36.910000Z</time>
      </trkpt>
      <trkpt lat="31.39289218781828" lon="120.91388891157814">
        <time>2026-09-11T13:35:42.910000Z</time>
      </trkpt>
      <trkpt lat="31.39272322044645" lon="120.91391090407285">
        <time>2026-09-11T13:35:48.910000Z</time>
      </trkpt>
      <trkpt lat="31.392567284529385" lon="120.91388494211292">
        <time>2026-09-11T13:35:54.910000Z</time>
      </trkpt>
      <trkpt lat="31.392490332365526" lon="120.91384998235662">
        <time>2026-09-11T13:35:57.910000Z</time>
      </trkpt>
      <trkpt lat="31.39242439518662" lon="120.91379004578168">
        <time>2026-09-11T13:36:00.910000Z</time>
      </trkpt>
      <trkpt lat="31.392376461347776" lon="120.91371811908039">
        <time>2026-09-11T13:36:03.910000Z</time>
      </trkpt>
      <trkpt lat="31.392286723330546" lon="120.91338943990031">
        <time>2026-09-11T13:36:15.910000Z</time>
      </trkpt>
      <trkpt lat="31.39227079730191" lon="120.91329153346449">
        <time>2026-09-11T13:36:18.910000Z</time>
      </trkpt>
      <trkpt lat="31.392286858083505" lon="120.91319861922544">
        <time>2026-09-11T13:36:21.910000Z</time>
      </trkpt>
      <trkpt lat="31.392449967607632" lon="120.91297381461696">
        <time>2026-09-11T13:36:30.910000Z</time>
      </trkpt>
      <trkpt lat="31.392530969059912" lon="120.91293784112639">
        <time>2026-09-11T13:36:33.910000Z</time>
      </trkpt>
      <trkpt lat="31.392630033821636" lon="120.91280195762458">
        <time>2026-09-11T13:36:39.910000Z</time>
      </trkpt>
      <trkpt lat="31.39266707970063" lon="120.91271903015951">
        <time>2026-09-11T13:36:42.910000Z</time>
      </trkpt>
      <trkpt lat="31.392688138670145" lon="120.91262311538526">
        <time>2026-09-11T13:36:45.910000Z</time>
      </trkpt>
      <trkpt lat="31.39267838171931" lon="120.91226343789026">
        <time>2026-09-11T13:36:57.910000Z</time>
      </trkpt>
      <trkpt lat="31.39266057741989" lon="120.91197169522104">
        <time>2026-09-11T13:37:06.910000Z</time>
      </trkpt>
      <trkpt lat="31.392667635908023" lon="120.91187777604551">
        <time>2026-09-11T13:37:09.910000Z</time>
      </trkpt>
      <trkpt lat="31.392728727355518" lon="120.91170691791379">
        <time>2026-09-11T13:37:15.910000Z</time>
      </trkpt>
      <trkpt lat="31.39292883543785" lon="120.91144312520552">
        <time>2026-09-11T13:37:27.910000Z</time>
      </trkpt>
      <trkpt lat="31.393098893365423" lon="120.91127025583963">
        <time>2026-09-11T13:37:36.910000Z</time>
      </trkpt>
      <trkpt lat="31.393372926708885" lon="120.91108638539147">
        <time>2026-09-11T13:37:49.010000Z</time>
      </trkpt>
      <trkpt lat="31.393422973883794" lon="120.91098446478492">
        <time>2026-09-11T13:37:55.010000Z</time>
      </trkpt>
      <trkpt lat="31.39344320443759" lon="120.91058578442541">
        <time>2026-09-11T13:38:07.010000Z</time>
      </trkpt>
      <trkpt lat="31.393415375175547" lon="120.91030400867685">
        <time>2026-09-11T13:38:16.010000Z</time>
      </trkpt>
      <trkpt lat="31.393235588868805" lon="120.91001724497453">
        <time>2026-09-11T13:38:28.010000Z</time>
      </trkpt>
      <trkpt lat="31.393024807273953" lon="120.9097314786765">
        <time>2026-09-11T13:38:40.010000Z</time>
      </trkpt>
      <trkpt lat="31.392861957476494" lon="120.90954063413406">
        <time>2026-09-11T13:38:49.010000Z</time>
      </trkpt>
      <trkpt lat="31.39273704851033" lon="120.90943772020151">
        <time>2026-09-11T13:38:55.010000Z</time>
      </trkpt>
      <trkpt lat="31.392483214670637" lon="120.90926186927219">
        <time>2026-09-11T13:39:07.010000Z</time>
      </trkpt>
      <trkpt lat="31.39230035640584" lon="120.90909100729958">
        <time>2026-09-11T13:39:16.010000Z</time>
      </trkpt>
      <trkpt lat="31.392232470201918" lon="120.90890714351539">
        <time>2026-09-11T13:39:22.010000Z</time>
      </trkpt>
      <trkpt lat="31.39219167555858" lon="120.90851941645388">
        <time>2026-09-11T13:39:34.010000Z</time>
      </trkpt>
      <trkpt lat="31.392192850156516" lon="120.90815666132607">
        <time>2026-09-11T13:39:46.010000Z</time>
      </trkpt>
      <trkpt lat="31.392194016986437" lon="120.90779789660358">
        <time>2026-09-11T13:39:58.010000Z</time>
      </trkpt>
      <trkpt lat="31.392203053101976" lon="120.90771295058805">
        <time>2026-09-11T13:40:01.010000Z</time>
      </trkpt>
      <trkpt lat="31.39218009859644" lon="120.90762700744757">
        <time>2026-09-11T13:40:04.010000Z</time>
      </trkpt>
      <trkpt lat="31.392065193497896" lon="120.9074891042647">
        <time>2026-09-11T13:40:10.410000Z</time>
      </trkpt>
      <trkpt lat="31.391798343802424" lon="120.90732322992733">
        <time>2026-09-11T13:40:19.410000Z</time>
      </trkpt>
      <trkpt lat="31.39155745443972" lon="120.90722930779468">
        <time>2026-09-11T13:40:28.410000Z</time>
      </trkpt>
      <trkpt lat="31.391579515722427" lon="120.90707140262292">
        <time>2026-09-11T13:40:34.410000Z</time>
      </trkpt>
      <trkpt lat="31.39164955820701" lon="120.90692248679817">
        <time>2026-09-11T13:40:40.410000Z</time>
      </trkpt>
      <trkpt lat="31.39170957120961" lon="120.9068495255016">
        <time>2026-09-11T13:40:43.410000Z</time>
      </trkpt>
      <trkpt lat="31.391803649467153" lon="120.90659166969414">
        <time>2026-09-11T13:40:52.410000Z</time>
      </trkpt>
      <trkpt lat="31.39187777795815" lon="120.90621188091365">
        <time>2026-09-11T13:41:04.410000Z</time>
      </trkpt>
      <trkpt lat="31.39198189201666" lon="120.90583008309252">
        <time>2026-09-11T13:41:16.410000Z</time>
      </trkpt>
      <trkpt lat="31.39201891468413" lon="120.90573912911192">
        <time>2026-09-11T13:41:19.410000Z</time>
      </trkpt>
      <trkpt lat="31.39209790528821" lon="120.90570214245736">
        <time>2026-09-11T13:41:22.410000Z</time>
      </trkpt>
      <trkpt lat="31.392342807449957" lon="120.90577608267445">
        <time>2026-09-11T13:41:31.410000Z</time>
      </trkpt>
      <trkpt lat="31.3924827819825" lon="120.90573509324051">
        <time>2026-09-11T13:41:37.410000Z</time>
      </trkpt>
      <trkpt lat="31.392628777492884" lon="120.90563113677668">
        <time>2026-09-11T13:41:43.410000Z</time>
      </trkpt>
      <trkpt lat="31.392693787021738" lon="120.9055521732252">
        <time>2026-09-11T13:41:46.410000Z</time>
      </trkpt>
      <trkpt lat="31.392737803745465" lon="120.90546921315298">
        <time>2026-09-11T13:41:49.410000Z</time>
      </trkpt>
      <trkpt lat="31.39275682667711" lon="120.90538825372798">
        <time>2026-09-11T13:41:52.410000Z</time>
      </trkpt>
      <trkpt lat="31.39275388963" lon="120.90520834635447">
        <time>2026-09-11T13:41:58.410000Z</time>
      </trkpt>
      <trkpt lat="31.39273792777475" lon="120.90510939774272">
        <time>2026-09-11T13:42:01.410000Z</time>
      </trkpt>
      <trkpt lat="31.392655015826936" lon="120.90491650067531">
        <time>2026-09-11T13:42:07.410000Z</time>
      </trkpt>
      <trkpt lat="31.392523090692695" lon="120.90480356685876">
        <time>2026-09-11T13:42:13.410000Z</time>
      </trkpt>
      <trkpt lat="31.39236314786406" lon="120.90476959649456">
        <time>2026-09-11T13:42:19.410000Z</time>
      </trkpt>
      <trkpt lat="31.392114199862892" lon="120.90483158671083">
        <time>2026-09-11T13:42:28.410000Z</time>
      </trkpt>
      <trkpt lat="31.391968201925977" lon="120.90495453818907">
        <time>2026-09-11T13:42:34.410000Z</time>
      </trkpt>
      <trkpt lat="31.391874172143485" lon="120.90512546047233">
        <time>2026-09-11T13:42:40.410000Z</time>
      </trkpt>
      <trkpt lat="31.39181816431089" lon="120.90519642913918">
        <time>2026-09-11T13:42:43.410000Z</time>
      </trkpt>
      <trkpt lat="31.391730186059217" lon="120.9052074307598">
        <time>2026-09-11T13:42:46.410000Z</time>
      </trkpt>
      <trkpt lat="31.391394289957358" lon="120.9051884679377">
        <time>2026-09-11T13:42:58.410000Z</time>
      </trkpt>
      <trkpt lat="31.39107139223229" lon="120.90516350706832">
        <time>2026-09-11T13:43:10.410000Z</time>
      </trkpt>
      <trkpt lat="31.391007420976724" lon="120.90513352746954">
        <time>2026-09-11T13:43:13.410000Z</time>
      </trkpt>
      <trkpt lat="31.391035528545622" lon="120.90478269898063">
        <time>2026-09-11T13:43:25.410000Z</time>
      </trkpt>
      <trkpt lat="31.391052638372358" lon="120.9044168718718">
        <time>2026-09-11T13:43:37.410000Z</time>
      </trkpt>
      <trkpt lat="31.391063746827616" lon="120.90404104263432">
        <time>2026-09-11T13:43:49.410000Z</time>
      </trkpt>
      <trkpt lat="31.391062850808893" lon="120.9036712043429">
        <time>2026-09-11T13:44:01.410000Z</time>
      </trkpt>
      <trkpt lat="31.391052921612072" lon="120.90341631234284">
        <time>2026-09-11T13:44:10.410000Z</time>
      </trkpt>
      <trkpt lat="31.391103969290224" lon="120.9031714079086">
        <time>2026-09-11T13:44:19.410000Z</time>
      </trkpt>
      <trkpt lat="31.391102991619388" lon="120.90308244343946">
        <time>2026-09-11T13:44:22.410000Z</time>
      </trkpt>
      <trkpt lat="31.391127030037705" lon="120.90289451498079">
        <time>2026-09-11T13:44:28.410000Z</time>
      </trkpt>
      <trkpt lat="31.391096129711574" lon="120.90249766662313">
        <time>2026-09-11T13:44:40.410000Z</time>
      </trkpt>
      <trkpt lat="31.391073215176384" lon="120.90212480103129">
        <time>2026-09-11T13:44:52.410000Z</time>
      </trkpt>
      <trkpt lat="31.391070289190935" lon="120.90174892745715">
        <time>2026-09-11T13:45:04.410000Z</time>
      </trkpt>
      <trkpt lat="31.391078355072423" lon="120.90136504799632">
        <time>2026-09-11T13:45:16.410000Z</time>
      </trkpt>
      <trkpt lat="31.39106841734496" lon="120.90099615798118">
        <time>2026-09-11T13:45:28.410000Z</time>
      </trkpt>
      <trkpt lat="31.391069470785833" lon="120.90062426072456">
        <time>2026-09-11T13:45:40.410000Z</time>
      </trkpt>
      <trkpt lat="31.391056485051198" lon="120.90054628242987">
        <time>2026-09-11T13:45:43.410000Z</time>
      </trkpt>
      <trkpt lat="31.390786560620857" lon="120.90056829875418">
        <time>2026-09-11T13:45:52.410000Z</time>
      </trkpt>
      <trkpt lat="31.39073158456512" lon="120.90050831898841">
        <time>2026-09-11T13:45:55.410000Z</time>
      </trkpt>
      <trkpt lat="31.390728597560738" lon="120.90041434349821">
        <time>2026-09-11T13:45:58.410000Z</time>
      </trkpt>
      <trkpt lat="31.39068961768294" lon="120.90034436446092">
        <time>2026-09-11T13:46:01.410000Z</time>
      </trkpt>
      <trkpt lat="31.39035471338155" lon="120.90035938811172">
        <time>2026-09-11T13:46:13.410000Z</time>
      </trkpt>
      <trkpt lat="31.39004280399202" lon="120.90036241290586">
        <time>2026-09-11T13:46:25.410000Z</time>
      </trkpt>
      <trkpt lat="31.389722896183" lon="120.90037243658145">
        <time>2026-09-11T13:46:37.410000Z</time>
      </trkpt>
      <trkpt lat="31.389413983640072" lon="120.90039545604436">
        <time>2026-09-11T13:46:49.410000Z</time>
      </trkpt>
      <trkpt lat="31.389110072382692" lon="120.90039748043164">
        <time>2026-09-11T13:47:01.410000Z</time>
      </trkpt>
      <trkpt lat="31.388808157353406" lon="120.90042549801018">
        <time>2026-09-11T13:47:13.410000Z</time>
      </trkpt>
      <trkpt lat="31.388496249428766" lon="120.90042152458608">
        <time>2026-09-11T13:47:25.410000Z</time>
      </trkpt>
      <trkpt lat="31.388186343185478" lon="120.90040055533834">
        <time>2026-09-11T13:47:37.410000Z</time>
      </trkpt>
      <trkpt lat="31.387873430961566" lon="120.90043457227328">
        <time>2026-09-11T13:47:49.410000Z</time>
      </trkpt>
      <trkpt lat="31.38755552388072" lon="120.90044059677396">
        <time>2026-09-11T13:48:01.410000Z</time>
      </trkpt>
      <trkpt lat="31.38724461485379" lon="120.90044662069923">
        <time>2026-09-11T13:48:13.410000Z</time>
      </trkpt>
      <trkpt lat="31.387167636686883" lon="120.90045362520226">
        <time>2026-09-11T13:48:16.410000Z</time>
      </trkpt>
      <trkpt lat="31.38711465438995" lon="120.90043763365892">
        <time>2026-09-11T13:48:19.410000Z</time>
      </trkpt>
      <trkpt lat="31.387055678281957" lon="120.9003866515222">
        <time>2026-09-11T13:48:25.410000Z</time>
      </trkpt>
      <trkpt lat="31.387025693617986" lon="120.90033466712597">
        <time>2026-09-11T13:48:31.410000Z</time>
      </trkpt>
      <trkpt lat="31.387021734607757" lon="120.89999075086371">
        <time>2026-09-11T13:48:43.410000Z</time>
      </trkpt>
      <trkpt lat="31.387049756208942" lon="120.89969681495572">
        <time>2026-09-11T13:48:52.410000Z</time>
      </trkpt>
      <trkpt lat="31.387039790937045" lon="120.89933189191301">
        <time>2026-09-11T13:49:04.410000Z</time>
      </trkpt>
      <trkpt lat="31.387061794041276" lon="120.89920591478172">
        <time>2026-09-11T13:49:10.410000Z</time>
      </trkpt>
      <trkpt lat="31.38702382048394" lon="120.89898395934726">
        <time>2026-09-11T13:49:16.410000Z</time>
      </trkpt>
      <trkpt lat="31.387040833475872" lon="120.89866601286535">
        <time>2026-09-11T13:49:25.410000Z</time>
      </trkpt>
      <trkpt lat="31.387059844268343" lon="120.89826407319971">
        <time>2026-09-11T13:49:37.410000Z</time>
      </trkpt>
      <trkpt lat="31.387071846263343" lon="120.89806310001529">
        <time>2026-09-11T13:49:43.810000Z</time>
      </trkpt>
      <trkpt lat="31.387066853309364" lon="120.89769214623135">
        <time>2026-09-11T13:49:55.810000Z</time>
      </trkpt>
      <trkpt lat="31.38705785543915" lon="120.89731418630825">
        <time>2026-09-11T13:50:07.810000Z</time>
      </trkpt>
      <trkpt lat="31.387046855842904" lon="120.89711220520248">
        <time>2026-09-11T13:50:13.810000Z</time>
      </trkpt>
      <trkpt lat="31.387101829482624" lon="120.89673422870939">
        <time>2026-09-11T13:50:25.810000Z</time>
      </trkpt>
      <trkpt lat="31.387117809984904" lon="120.89638724662635">
        <time>2026-09-11T13:50:37.810000Z</time>
      </trkpt>
      <trkpt lat="31.387122803386312" lon="120.89628925052413">
        <time>2026-09-11T13:50:40.810000Z</time>
      </trkpt>
      <trkpt lat="31.387080810835293" lon="120.89620125740969">
        <time>2026-09-11T13:50:43.810000Z</time>
      </trkpt>
      <trkpt lat="31.386982839378806" lon="120.89619426569094">
        <time>2026-09-11T13:50:46.810000Z</time>
      </trkpt>
      <trkpt lat="31.386915854728784" lon="120.89612027374017">
        <time>2026-09-11T13:50:49.810000Z</time>
      </trkpt>
      <trkpt lat="31.386842873803747" lon="120.89608028098569">
        <time>2026-09-11T13:50:52.810000Z</time>
      </trkpt>
      <trkpt lat="31.386510976968555" lon="120.89616030555037">
        <time>2026-09-11T13:51:04.810000Z</time>
      </trkpt>
      <trkpt lat="31.38633303257417" lon="120.89620931835798">
        <time>2026-09-11T13:51:10.810000Z</time>
      </trkpt>
      <trkpt lat="31.385997134413522" lon="120.89624834437433">
        <time>2026-09-11T13:51:22.810000Z</time>
      </trkpt>
      <trkpt lat="31.385663239177976" lon="120.89635236735361">
        <time>2026-09-11T13:51:34.810000Z</time>
      </trkpt>
      <trkpt lat="31.38533034158335" lon="120.89642039146155">
        <time>2026-09-11T13:51:46.810000Z</time>
      </trkpt>
      <trkpt lat="31.384990445035783" lon="120.89646741697798">
        <time>2026-09-11T13:51:58.810000Z</time>
      </trkpt>
      <trkpt lat="31.384645550686493" lon="120.89652944198882">
        <time>2026-09-11T13:52:10.810000Z</time>
      </trkpt>
      <trkpt lat="31.38430965219673" lon="120.89655746797189">
        <time>2026-09-11T13:52:22.810000Z</time>
      </trkpt>
      <trkpt lat="31.384234675490582" lon="120.89657847294123">
        <time>2026-09-11T13:52:25.810000Z</time>
      </trkpt>
      <trkpt lat="31.384150703374814" lon="120.89664747581074">
        <time>2026-09-11T13:52:28.810000Z</time>
      </trkpt>
      <trkpt lat="31.38383179924591" lon="120.89665950120558">
        <time>2026-09-11T13:52:40.810000Z</time>
      </trkpt>
      <trkpt lat="31.383774813354496" lon="120.89658551020649">
        <time>2026-09-11T13:52:43.810000Z</time>
      </trkpt>
      <trkpt lat="31.383706831844275" lon="120.89654151821705">
        <time>2026-09-11T13:52:46.810000Z</time>
      </trkpt>
      <trkpt lat="31.38366484113512" lon="120.89646852548938">
        <time>2026-09-11T13:52:49.810000Z</time>
      </trkpt>
      <trkpt lat="31.383672817885383" lon="120.89608854036118">
        <time>2026-09-11T13:53:01.810000Z</time>
      </trkpt>
      <trkpt lat="31.383679788337318" lon="120.89570454793854">
        <time>2026-09-11T13:53:13.810000Z</time>
      </trkpt>
      <trkpt lat="31.38367775411839" lon="120.89531054860231">
        <time>2026-09-11T13:53:22.810000Z</time>
      </trkpt>
      <trkpt lat="31.383694737291194" lon="120.89519254581299">
        <time>2026-09-11T13:53:25.810000Z</time>
      </trkpt>
      <trkpt lat="31.383665707737816" lon="120.89484353988576">
        <time>2026-09-11T13:53:34.810000Z</time>
      </trkpt>
      <trkpt lat="31.383661681367048" lon="120.89461753151843">
        <time>2026-09-11T13:53:40.810000Z</time>
      </trkpt>
      <trkpt lat="31.383640642879477" lon="120.89428351561845">
        <time>2026-09-11T13:53:49.910000Z</time>
      </trkpt>
      <trkpt lat="31.38361759894148" lon="120.89394149357472">
        <time>2026-09-11T13:53:58.910000Z</time>
      </trkpt>
      <trkpt lat="31.383606550296644" lon="120.89362246679988">
        <time>2026-09-11T13:54:07.910000Z</time>
      </trkpt>
      <trkpt lat="31.383611490291155" lon="120.89329143221767">
        <time>2026-09-11T13:54:16.910000Z</time>
      </trkpt>
      <trkpt lat="31.383634464426727" lon="120.89318941868565">
        <time>2026-09-11T13:54:19.910000Z</time>
      </trkpt>
      <trkpt lat="31.38362040600027" lon="120.89286837973812">
        <time>2026-09-11T13:54:28.910000Z</time>
      </trkpt>
      <trkpt lat="31.38362231880318" lon="120.892457320645">
        <time>2026-09-11T13:54:40.910000Z</time>
      </trkpt>
      <trkpt lat="31.3836252234021" lon="120.89204325243836">
        <time>2026-09-11T13:54:52.910000Z</time>
      </trkpt>
      <trkpt lat="31.383647125688057" lon="120.89167118222585">
        <time>2026-09-11T13:55:04.910000Z</time>
      </trkpt>
      <trkpt lat="31.3836740627854" lon="120.89145813772095">
        <time>2026-09-11T13:55:10.910000Z</time>
      </trkpt>
      <trkpt lat="31.3837889856472" lon="120.89129709483008">
        <time>2026-09-11T13:55:16.910000Z</time>
      </trkpt>
      <trkpt lat="31.38392791642869" lon="120.8911950615712">
        <time>2026-09-11T13:55:22.910000Z</time>
      </trkpt>
      <trkpt lat="31.38427880219303" lon="120.89116102542619">
        <time>2026-09-11T13:55:34.910000Z</time>
      </trkpt>
      <trkpt lat="31.384571719100418" lon="120.89117700493148">
        <time>2026-09-11T13:55:46.910000Z</time>
      </trkpt>
      <trkpt lat="31.384845633552" lon="120.89116297944234">
        <time>2026-09-11T13:55:58.910000Z</time>
      </trkpt>
      <trkpt lat="31.38490561237592" lon="120.8911509719026">
        <time>2026-09-11T13:56:04.910000Z</time>
      </trkpt>
      <trkpt lat="31.384965603272295" lon="120.89118297398058">
        <time>2026-09-11T13:56:10.910000Z</time>
      </trkpt>
      <trkpt lat="31.384978644482523" lon="120.89135000856683">
        <time>2026-09-11T13:56:22.910000Z</time>
      </trkpt>
      <trkpt lat="31.385021648111515" lon="120.89141201792692">
        <time>2026-09-11T13:56:28.910000Z</time>
      </trkpt>
      <trkpt lat="31.385038657755274" lon="120.89146802800389">
        <time>2026-09-11T13:56:34.910000Z</time>
      </trkpt>
      <trkpt lat="31.385057046443258" lon="120.8915941495951">
        <time>2026-09-11T13:56:46.910000Z</time>
      </trkpt>
      <trkpt lat="31.38490973415866" lon="120.89161506792414">
        <time>2026-09-11T13:56:52.910000Z</time>
      </trkpt>
    </trkseg>
  </trk>
</gpx>